"pid","wdpa_pid","name","country_de","country_en","region","type","area_sqkm","mab","world_heritage","ramsar","ecosystem","pa_def","desig_eng","desig_type","iucn_cat","int_crit","marine","rep_m_area","gis_m_area","rep_area","gis_area","iso3","uid"
2611,"68","Parque Nacional Monte Pascoal","Brasilien","Brazil","Lateinamerika","National Park",223.3,NA,NA,NA,"Wald",1,"Park","National","II","Not Applicable",0,0.52,1.43908315367,222.396,223.643170547,"BRA",NA
2618,"198352","Parque Nacional do Descobrimento","Brasilien","Brazil","Lateinamerika","National Park",226.9,NA,NA,NA,"Wald",1,"Park","National","II","Not Applicable",0,0,0,226.941,228.208387517,"BRA",NA
2676,"555511939","Serrania de los Yarguies ","Kolumbien","Colombia","Lateinamerika","National Park",590.63,NA,NA,NA,"Wald",1,"Natural National Park","National","II","Not Applicable",0,0,0,590.63,600.834032278,"COL",NA
2566,"18839","Lancetilla","Honduras","Honduras","Lateinamerika","National Park",19.6,NA,NA,NA,"Wald",1,"Botanical Garden","National","IV","Not Applicable",0,0,0,19.6249607063,19.752479726,"HND",NA
2524,"555629313","Cerro Mampil","Guatemala","Guatemala","Lateinamerika","National Park",0.1,NA,NA,NA,"Wald",1,"Regional Municipal Park","National","IV","Not Applicable",0,0,0,0.100803493113,0.100803493113,"GTM",NA
2525,"555556016","La Primavera","Kolumbien","Colombia","Lateinamerika","National Park",0.9,NA,NA,NA,"Wald",1,"Reserve Natural Civil Society","National","VI","Not Applicable",0,0,0,0.2060000038,0.130864657674,"COL",NA
2526,"555600297","Reserva Particular do Patrimônio Natural Rio Jardim","Brasilien","Brazil","Lateinamerika","National Park",0.1,NA,NA,NA,"Wald",1,"Natural Heritage Private Reserve","National","IV","Not Applicable",0,0,0,0.069516,0.0699106454531,"BRA",NA
2527,"555600202","Reserva Particular do Patrimônio Natural Carroula","Brasilien","Brazil","Lateinamerika","National Park",0.15,NA,NA,NA,"Wald",1,"Natural Heritage Private Reserve","National","IV","Not Applicable",2,0,0.147415632382,0.146594,0.147415632382,"BRA",NA
2528,"478454","PNM de Petrópolis","Brasilien","Brazil","Lateinamerika","National Park",0.2,NA,NA,NA,"Wald",1,"Park","National","II","Not Applicable",0,0,0,0.165216,0.166005082045,"BRA",NA
2529,"555629305","Los Regadíos","Guatemala","Guatemala","Lateinamerika","National Park",0.3,NA,NA,NA,"Wald",1,"Regional Municipal Park","National","IV","Not Applicable",0,0,0,0.301532296603,0.301532296603,"GTM",NA
2530,"555599979","RPPN Fazenda Suspiro","Brasilien","Brazil","Lateinamerika","National Park",0.18,NA,NA,NA,"Wald",1,"Natural Heritage Private Reserve","National","IV","Not Applicable",0,0,0,0.182077,0.182948585652,"BRA",NA
2531,"555629331","Montana Negra","Guatemala","Guatemala","Lateinamerika","National Park",0.61,NA,NA,NA,"Wald",1,"Private Natural Reserve","National","V","Not Applicable",0,0,0,0.624800270427,0.624800270427,"GTM",NA
2532,"555576230","RPPN Serra do Itatins","Brasilien","Brazil","Lateinamerika","National Park",0.75,NA,NA,NA,"Wald",1,"Natural Heritage Private Reserve","National","IV","Not Applicable",0,0,0,0.749229,0.752550060837,"BRA",NA
2533,"555629363","Asunlaq","Guatemala","Guatemala","Lateinamerika","National Park",0.3,NA,NA,NA,"Wald",1,"Regional Municipal Park","National","IV","Not Applicable",0,0,0,0.878749023443,0.878749023443,"GTM",NA
2534,"555637340","Twi A'ljwitz","Guatemala","Guatemala","Lateinamerika","National Park",1.3,NA,NA,NA,"Wald",1,"Regional Municipal Park","National","IV","Not Applicable",0,0,0,1.33746914224,1.33746914224,"GTM",NA
2535,"555600241","RPPN Santa Maria I","Brasilien","Brazil","Lateinamerika","National Park",0.97,NA,NA,NA,"Wald",1,"Natural Heritage Private Reserve","National","IV","Not Applicable",0,0,0,0.96571,0.971102052857,"BRA",NA
2536,"555600250","RPPN Santa Maria III","Brasilien","Brazil","Lateinamerika","National Park",1.6,NA,NA,NA,"Wald",1,"Natural Heritage Private Reserve","National","IV","Not Applicable",0,0,0,1.59783,1.60674094618,"BRA",NA
2537,"555600223","RPPN Santa Maria II","Brasilien","Brazil","Lateinamerika","National Park",1.59,NA,NA,NA,"Wald",1,"Natural Heritage Private Reserve","National","IV","Not Applicable",0,0,0,1.58649,1.59534650846,"BRA",NA
2538,"555600232","RPPN Graziela Maciel Barroso","Brasilien","Brazil","Lateinamerika","National Park",1.84,NA,NA,NA,"Wald",1,"Natural Heritage Private Reserve","National","IV","Not Applicable",0,0,0,1.84986,1.85870570402,"BRA",NA
2539,"351720","Ilha do Ameixal","Brasilien","Brazil","Lateinamerika","National Park",3.59,NA,NA,NA,"Küste",1,"Area of Relevant Ecological Interest","National","IV","Not Applicable",0,0,0.0109397606973,3.58885,3.60477958398,"BRA",NA
2540,"555682146","ESEC Montes das Flores","Brasilien","Brazil","Lateinamerika","National Park",2.1,NA,NA,NA,"Wald",1,"Ecological Station","National","Ia","Not Applicable",0,0,0,2.143,2.15334580042,"BRA",NA
2541,"555629318","A'qoma","Guatemala","Guatemala","Lateinamerika","National Park",3,NA,NA,NA,"Wald",1,"Regional Municipal Park","National","IV","Not Applicable",0,0,0,2.91985799975,2.91985799975,"GTM",NA
2542,"555629306","Piedras de Cap Tzin","Guatemala","Guatemala","Lateinamerika","National Park",3,NA,NA,NA,"Wald",1,"Regional Municipal Park","National","IV","Not Applicable",0,0,0,3.05893047872,3.05893047872,"GTM",NA
2543,"31398","Estoraques","Kolumbien","Colombia","Lateinamerika","Unique Nature Area",6.41,NA,NA,NA,"Hochgebirge",1,"Natual Area","National","III","Not Applicable",0,0,0,6.4061999512,6.38823350951,"COL",NA
2544,"351931","Parque Estadual da Ilha do Mel","Brasilien","Brazil","Lateinamerika","National Park",4,NA,NA,NA,"Wald",1,"Park","National","II","Not Applicable",0,0.75,0.207028021189,3.94725,3.96396336568,"BRA",NA
2545,"107428","Bola de Monte","El Salvador","El Salvador","Lateinamerika","Área Natural",0.01,NA,NA,NA,"Küste",1,"Natural Area","National","Not Reported","Not Applicable",1,0,0.320526797176,1.778143,1.78959073974,"SLV",NA
2546,"478416","Silvestre Rio dos Frades","Brasilien","Brazil","Lateinamerika","National Park",9,NA,NA,NA,"Wald",1,"Wildlife Refuge","National","III","Not Applicable",0,0,0.433039716328,8.98667,9.03732011492,"BRA",NA
2547,"41027","Port Royal","Honduras","Honduras","Lateinamerika","National Park",5,NA,NA,NA,"Küste",1,"National Park","National","II","Not Applicable",1,0,3.87322578138,4.99593212833,5.0275772029,"HND",NA
2548,"128","Los Colorados","Kolumbien","Colombia","Lateinamerika","Flora and Fauna Sanctuary",10,NA,NA,NA,"Wald",1,"Fauna and Flora Sanctuary","National","IV","Not Applicable",0,0,0,10,10.4823821242,"COL",NA
2549,"555576373","RESEX Ilha do Tumba","Brasilien","Brazil","Lateinamerika","National Park",11.28,NA,NA,NA,"Wald",1,"Extractive Reserve","National","VI","Not Applicable",1,0,1.21055117628,11.2664,11.3147949413,"BRA",NA
2550,"35271","Old Providence McBean Lagoon","Kolumbien","Colombia","Lateinamerika","National Park",9.95,"Seaflower",NA,NA,"Küste",1,"Natural National Park","National","II","Not Applicable",1,0,14.338273802,16.1397998047,16.245965148,"COL",NA
2551,"555576249","ARIE Guará","Brasilien","Brazil","Lateinamerika","National Park",4,NA,NA,NA,"Wald",1,"Area of Relevant Ecological Interest","National","IV","Not Applicable",1,0,2.09761282485,4.54962,4.56950719698,"BRA",NA
2552,"12494","El Imposible","El Salvador","El Salvador","Lateinamerika","Parque Nacional",35.21,NA,NA,NA,"Wald",1,"National Park","National","II","Not Applicable",0,0,0,17.654415,14.0830411909,"SLV",NA
2553,"555576325","PN Marinho Ilha dos Currais","Brasilien","Brazil","Lateinamerika","National Park",13.61,NA,NA,NA,"Wald",1,"Park","National","II","Not Applicable",2,13.4,13.4674777462,13.597,13.6540517421,"BRA",NA
2554,"555576152","PE Cristalino II","Brasilien","Brazil","Lateinamerika","ESEC",24.51,NA,NA,NA,"Wald",1,"Natural Heritage Private Reserve","National","IV","Not Applicable",0,0,0,16.1744,16.2774866899,"BRA",NA
2555,"302095","Ipala","Guatemala","Guatemala","Lateinamerika","Área de Uso multiple",20.12,NA,NA,NA,"Wald",1,"Multiple Use Area","National","III","Not Applicable",0,0,0,23.0994424956,23.0994424956,"GTM",NA
2556,"351719","Mandira","Brasilien","Brazil","Lateinamerika","National Park",11.76,NA,NA,NA,"Küste",1,"Extractive Reserve","National","VI","Not Applicable",1,0,2.55195289517,11.7779,11.8290033449,"BRA",NA
2557,"351821","ESEC Guanabara","Brasilien","Brazil","Lateinamerika","National Park",19.35,NA,NA,NA,"Wald",1,"Ecological Station","National","Ia","Not Applicable",1,3.48,2.25446028909,19.3623,19.4539623174,"BRA",NA
2558,"555576260","RDS Itapanhapima","Brasilien","Brazil","Lateinamerika","National Park",12.43,NA,NA,NA,"Wald",1,"Sustainable Development Reserve","National","VI","Not Applicable",1,0,2.25718131742,12.4096,12.4630851404,"BRA",NA
2559,"555629317","La Vieja Catarina","Guatemala","Guatemala","Lateinamerika","National Park",1,NA,NA,NA,"Wald",1,"Regional Municipal Park","National","IV","Not Applicable",0,0,0,1.02760086895,1.02760086895,"GTM",NA
2560,"40924","ESEC Guaraguaçu","Brasilien","Brazil","Lateinamerika","National Park",11.5,NA,NA,NA,"Wald",1,"Ecological Station","National","Ia","Not Applicable",0,0,0,11.8787,11.9287667338,"BRA",NA
2561,"555599932","Estação Ecológica Ilha do Mel","Brasilien","Brazil","Lateinamerika","National Park",22.41,NA,NA,NA,"Wald",1,"Ecological Station","National","Ia","Not Applicable",0,0,0.922964316389,23.2309,23.3294942574,"BRA",NA
2562,"478591","PE do Prelado","Brasilien","Brazil","Lateinamerika","National Park",18.28,NA,NA,NA,"Wald",1,"Park","National","II","Not Applicable",0,0,0.000234578316788,18.2722,18.3528124847,"BRA",NA
2563,"555600294","PE Cristalino III","Brasilien","Brazil","Lateinamerika","ESEC",16.17,NA,NA,NA,"Wald",1,"Natural Heritage Private Reserve","National","IV","Not Applicable",0,0,0,24.5081,24.6645659471,"BRA",NA
2564,"95337","Jeanette Kawas","Honduras","Honduras","Lateinamerika","National Park",793.8,NA,NA,"Jeanette Kawas","Küste",1,"Ramsar Site, Wetland of International Importance","International","Not Reported","Not Reported",0,0,0,781.5,25.8200631435,"HND",NA
2565,"555576159","RESEX Taquaril","Brasilien","Brazil","Lateinamerika","National Park",16.62,NA,NA,NA,"Wald",1,"Extractive Reserve","National","VI","Not Applicable",1,0,2.66864456133,16.6031,16.6749156781,"BRA",NA
2567,"18823","El Pital","Honduras","Honduras","Lateinamerika","Reserva Biologica",33.24,NA,NA,NA,"Wald",1,"Biological Reserve","National","Not Reported","Not Applicable",0,0,0,26.7521532933,26.896133251,"HND",NA
2568,"478502","RDS Barra do Uma","Brasilien","Brazil","Lateinamerika","National Park",14.87,NA,NA,NA,"Wald",1,"Sustainable Development Reserve","National","VI","Not Applicable",0,0,0.873673351981,14.8668,14.9328211225,"BRA",NA
2569,"351996","Parque Estadual Campina do Encantado","Brasilien","Brazil","Lateinamerika","National Park",32,NA,NA,NA,"Wald",1,"Park","National","II","Not Applicable",0,0,0,32.5462,32.6891268433,"BRA",NA
2570,"555682331","APA  Jaceruba","Brasilien","Brazil","Lateinamerika","National Park",24.74,NA,NA,NA,"Wald",1,"Environmental Protection Area","National","V","Not Applicable",0,0,0,23.3891,23.5001854551,"BRA",NA
2571,"15981","REBIO de Araras","Brasilien","Brazil","Lateinamerika","National Park",38.62,NA,NA,NA,"Wald",1,"Biological Reserve","National","Ia","Not Applicable",0,0,0,38.3785,38.5619085925,"BRA",NA
2572,"303546","El Corchal","Kolumbien","Colombia","Lateinamerika","Flora and Fauna Sanctuary",38.5,NA,NA,NA,"Küste",1,"Fauna and Flora Sanctuary","National","IV","Not Applicable",0,0,1.23343240509,38.5,38.927291523,"COL",NA
2573,"18841","Erapuca","Honduras","Honduras","Lateinamerika","Refugio de Vida Silvestre",62.22,NA,NA,NA,"Wald",1,"Wildlife Refuge","National","Not Reported","Not Applicable",0,0,0,89.8041739888,65.582411712,"HND",NA
2574,"19434","Chauás","Brasilien","Brazil","Lateinamerika","National Park",27,NA,"Atlantic Forest South-East Reserves",NA,"Küste",1,"Ecological Station","National","Ia","Not Applicable",0,0,0,24.9845,25.0938410608,"BRA",NA
2575,"20229","Caracol Maya Ruins","Belize","Belize","Lateinamerika","National Park",103,NA,NA,NA,"Küste + EEZ",1,"Archaeological Reserve","National","VI","Not Applicable",0,0,0,101.1714105,103.78979977,"BLZ",NA
2576,"352120","APA Bacia do Rio dos Frades","Brasilien","Brazil","Lateinamerika","National Park",75,NA,NA,NA,"Wald",1,"Environmental Protection Area","National","V","Not Applicable",0,0,0,68.8214,69.1514267444,"BRA",NA
2577,"352012","Parque Estadual do Boguaçu","Brasilien","Brazil","Lateinamerika","National Park",60.5,NA,NA,NA,"Wald",1,"Park","National","II","Not Applicable",0,0,0,66.5685,66.8458680485,"BRA",NA
2578,"478537","RDS Despraiado","Brasilien","Brazil","Lateinamerika","National Park",39.53,NA,NA,NA,"Wald",1,"Sustainable Development Reserve","National","VI","Not Applicable",0,0,0,39.5021,39.6776463506,"BRA",NA
2579,"126","Los Flamencos","Kolumbien","Colombia","Lateinamerika","Flora and Fauna Sanctuary",76.15,NA,NA,NA,"Küste",1,"Fauna and Flora Sanctuary","National","IV","Not Applicable",1,0,8.52277356802,70,70.7574390794,"COL",NA
2580,"301932","Nojkaaxmeen Eligio Panti ","Belize","Belize","Lateinamerika","National Park",51,NA,NA,NA,"Küste",1,"National Park","National","II","Not Applicable",0,0,0,57.159014133,51.8688429028,"BLZ",NA
2581,"351822","RESEX Chocoaré-Mato Grosso","Brasilien","Brazil","Lateinamerika","National Park",27.59,NA,NA,NA,"Wald",1,"Extractive Reserve","National","VI","Not Applicable",0,0,0,27.8298,28.0174647277,"BRA",NA
2582,"555582978","Guanaja 2","Honduras","Honduras","Lateinamerika","National Park",27.03,NA,NA,NA,"Wald",1,"Forest Reserve","National","Not Reported","Not Applicable",1,0,12.0674347417,27.0288453309,27.1938465539,"HND",NA
2583,"12223","Galeras   ","Kolumbien","Colombia","Lateinamerika","Flora and Fauna Sanctuary",76.15,NA,NA,NA,"Wald",1,"Fauna and Flora Sanctuary","National","IV","Not Applicable",0,0,0,76.15,83.848919203,"COL",NA
2584,"41011","Capiro y Calentura","Honduras","Honduras","Lateinamerika","National Park",80.82,NA,NA,NA,"Wald",1,"National Park","National","II","Not Applicable",0,0,0,80.8150940255,81.3178342837,"HND",NA
2585,"35272","Guanentá Alto Río Fonce","Kolumbien","Colombia","Lateinamerika","Flora and Fauna Sanctuary",104.29,NA,NA,NA,"Hochgebirge",1,"Fauna and Flora Sanctuary","National","IV","Not Applicable",0,0,0,104.29,103.32962644,"COL",NA
2586,"107427","Barra de Santiago","El Salvador","El Salvador","Lateinamerika","Área Natural",18.48,NA,NA,"Barra de Santiago","Küste",1,"Natural Area","National","Not Reported","Not Applicable",0,0,0,21.683273,19.0770000255,"SLV",NA
2587,"217","Cofre de Perote ","Mexiko","Mexico","Lateinamerika","Parque Nacional",11.531,NA,NA,NA,"Wald",1,"National Park","National","II","Not Applicable",0,0,0,115.30733,115.896850899,"MEX",NA
2588,"351721","Ilha da Queimada Grande e Queimada Pequena","Brasilien","Brazil","Lateinamerika","National Park",0.33,NA,NA,NA,"Küste",1,"Area of Relevant Ecological Interest","National","IV","Not Applicable",1,0.65,0.386441409129,0.651758,0.654644340975,"BRA",NA
2589,"351780","RESEX São João da Ponta","Brasilien","Brazil","Lateinamerika","RESEX",34.09,NA,NA,NA,"Wald",1,"Extractive Reserve","National","VI","Not Applicable",0,0,0,34.0949,34.3248928381,"BRA",NA
2590,"342379","Guisayote","Honduras","Honduras","Lateinamerika","Reserva Biologica",140.81,NA,NA,NA,"Wald",1,"Biological Reserve","National","Not Reported","Not Applicable",0,0,0,140.817840689,141.587615529,"HND",NA
2591,"12225","Fresh Water Creek","Belize","Belize","Lateinamerika","National Park",135,NA,NA,NA,"Küste",1,"Forest Reserve","National","VI","Not Applicable",0,0,0,113.591212853,134.473434142,"BLZ",NA
2592,"351840","APA Guapimirim","Brasilien","Brazil","Lateinamerika","National Park",138.25,NA,NA,NA,"Wald",1,"Environmental Protection Area","National","V","Not Applicable",1,52.51,50.4048347738,138.9,139.555491301,"BRA",NA
2593,"36051","Laguna de Guaimoreto","Honduras","Honduras","Lateinamerika","National Park",85.94,NA,NA,NA,"Küste",1,"Wildlife Refuge","National","Not Reported","Not Applicable",0,0,1.51931028889,85.9396485489,86.4683123469,"HND",NA
2594,"127","Iguaque","Kolumbien","Colombia","Lateinamerika","Flora and Fauna Sanctuary",67.5,NA,NA,NA,"Hochgebirge",1,"Fauna and Flora Sanctuary","National","IV","Not Applicable",0,0,0,67.5,69.3389058623,"COL",NA
2595,"555592746","Bahia Portete Kaumele","Kolumbien","Colombia","Lateinamerika","National Park",140.8,NA,NA,NA,"Küste",1,"Natural National Park","National","II","Not Applicable",1,0,110.87086904,140.8,141.634983919,"COL",NA
2596,"555576365","PNM Montanhas de Teresópolis","Brasilien","Brazil","Lateinamerika","National Park",43.97,NA,NA,NA,"Wald",1,"Park","National","II","Not Applicable",0,0,0,43.9654,44.1763922105,"BRA",NA
2597,"18816","Barras de Cuero y Salado","Honduras","Honduras","Lateinamerika","National Park",130.3,NA,NA,"Barras de Cuero y Salado","Küste",1,"Wildlife Refuge","National","Not Reported","Not Applicable",1,0,45.663932143,130.270680829,131.092879411,"HND",NA
2598,"116297","Vaca forest Reserve","Belize","Belize","Lateinamerika","National Park",141,NA,NA,NA,"Küste",1,"Forest Reserve","National","VI","Not Applicable",0,0,0,144.479856193,162.207927123,"BLZ",NA
2599,"23306","Cusuco","Honduras","Honduras","Lateinamerika","Parque Nacional",190.07,NA,NA,NA,"Wald",1,"National Park","National","II","Not Applicable",0,0,0,167.543232762,168.563961518,"HND",NA
2600,"41024","Punta Izopo","Honduras","Honduras","Lateinamerika","National Park",227.4,NA,NA,"Punta Izopo","Wald",1,"National Park","National","II","Not Applicable",1,0,35.0980493466,185.846279866,187.054127999,"HND",NA
2601,"152","Tayrona","Kolumbien","Colombia","Lateinamerika","National Park",150,NA,NA,NA,"Küste",1,"Natural National Park","National","II","Not Applicable",1,0,45.6152456703,150,194.295145838,"COL",NA
2602,"555592954","El Morro Wildlife Reserve","Ecuador","Ecuador","Lateinamerika","Wildlife Reserve",118,NA,NA,NA,"Küste + EEZ",1,"Wildlife Refuge","National","Not Reported","Not Applicable",1,0,102.036730709,118.068143137,118.918565444,"ECU",NA
2603,"107153","Trifinio","Guatemala","Guatemala","Lateinamerika","Reserva de Biósfera ",1484.82,"Trifinio",NA,"San Diego, San Felipe las Barras","Wald",1,"Biosphere Reserve","National","VI","Not Applicable",0,0,0,221.792399532,221.792399532,"GTM",NA
2604,"902744","Sarstoon Temash","Belize","Belize","Lateinamerika","National Park",169.92,NA,NA,"Sarstoon Temash","Küste",1,"Ramsar Site, Wetland of International Importance","International","Not Reported","(i)(ii)(iv)",0,169.55,1.05908513249,169.55,170.304342416,"BLZ",NA
2605,"107424","Los Cóbanos","El Salvador","El Salvador","Lateinamerika","Áera Natural",207.63,NA,NA,NA,"Meer",1,"Protected Area","National","Not Reported","Not Applicable",2,207.36,206.093835988,213.129147,214.489577736,"SLV",NA
2606,"555600266","RESEX Marinha Cuinarana","Brasilien","Brazil","Lateinamerika","RESEX",110.37,NA,NA,NA,"Wald",1,"Extractive Reserve","National","VI","Not Applicable",1,0.36,18.9121614668,110.363,111.106877285,"BRA",NA
2607,"198353","PN Pau Brasil","Brasilien","Brazil","Lateinamerika","National Park",190.27,NA,NA,NA,"Wald",1,"Park","National","II","Not Applicable",0,0,0,189.344,190.415073325,"BRA",NA
2608,"214","Pico de Orizaba","Mexiko","Mexico","Lateinamerika","Parque Nacional",19.75,NA,NA,NA,"Wald",1,"National Park","National","II","Not Applicable",0,0,0,197.50005,198.490790796,"MEX",NA
2609,"72","PARNA Serra dos Órgãos","Brasilien","Brazil","Lateinamerika","National Park",200,NA,NA,NA,"Wald",1,"Park","National","II","Not Applicable",0,0,0,200.205,201.160466521,"BRA",NA
2610,"101416_B","Sierra del Abra Tanchipa","Mexiko","Mexico","Lateinamerika","Área de Protección de Flora y Fauna",21.464,NA,NA,NA,"Wald",1,"Biosphere Reserve","National","VI","Not Applicable",0,0,0,47.06358,47.3579191237,"MEX",NA
2612,"555600245","RESEX Marinha Mocapajuba","Brasilien","Brazil","Lateinamerika","RESEX",210.29,NA,NA,NA,"Wald",1,"Extractive Reserve","National","VI","Not Applicable",1,47.98,66.136280857,210.278,211.69501447,"BRA",NA
2613,"555582992","Nombre de Dios","Honduras","Honduras","Lateinamerika","National Park",267.58,NA,NA,NA,"Wald",1,"National Park","National","II","Not Applicable",0,0,0.0574929013239,0,304.717855426,"HND",NA
2614,"555592745","Acandí","Kolumbien","Colombia","Lateinamerika","Flora and Fauna Sanctuary",262.33,NA,NA,NA,"Küste",1,"Fauna Sanctuary","National","IV","Not Applicable",2,0,256.401100308,262.326992188,264.000124868,"COL",NA
2615,"351972","Parque Estadual Ilha do Cardoso","Brasilien","Brazil","Lateinamerika","National Park",135,NA,"Atlantic Forest South-East Reserves",NA,"Wald",1,"Park","National","II","Not Applicable",0,0.91,3.57991528734,131.553,132.119996205,"BRA",NA
2616,"351863","Área de Proteção Ambiental de Caraíva-Trancoso","Brasilien","Brazil","Lateinamerika","National Park",319,NA,NA,NA,"Wald",1,"Environmental Protection Area","National","V","Not Applicable",1,92.46,86.6109773739,319.271,321.067100254,"BRA",NA
2617,"351718","Parque Nacional de Saint-Hilaire/Lange","Brasilien","Brazil","Lateinamerika","National Park",251.2,NA,NA,NA,"Wald",1,"Park","National","II","Not Applicable",0,0,0,243.523,244.532740427,"BRA",NA
2619,"555555613","Illescas","Peru","Peru","Lateinamerika","National Park",37,NA,NA,NA,"Küste",1,"Restricted Zone","National","Not Assigned","Not Applicable",0,0,0.97741866971,374.5258,377.299348171,"PER",NA
2620,"18845","Texiguat","Honduras","Honduras","Lateinamerika","National Park",469.85,NA,NA,NA,"Wald",1,"Wildlife Refuge","National","Not Reported","Not Applicable",0,0,0,469.849148787,472.931587158,"HND",NA
2621,"555576334","REBIO Bom Juses","Brasilien","Brazil","Lateinamerika","National Park",341.79,NA,NA,NA,"Wald",1,"Biological Reserve","National","Ia","Not Applicable",0,0,0.0360376621548,341.787,343.248313013,"BRA",NA
2622,"12555","Cerro San Gil","Guatemala","Guatemala","Lateinamerika","Rerserva Protectora de Manantiales",474.35,NA,NA,NA,"Wald",1,"Watershed Protection Reserve","National","III","Not Applicable",0,0,0.018267381447,442.259460679,442.259460679,"GTM",NA
2623,"39850","APA de Macaé de Cima","Brasilien","Brazil","Lateinamerika","National Park",350.37,NA,NA,NA,"Wald",1,"Environmental Protection Area","National","V","Not Applicable",0,0,0,350.033,351.710082262,"BRA",NA
2624,"10754","Gorgona","Kolumbien","Colombia","Lateinamerika","National Park",616.88,NA,NA,NA,"Küste",1,"Natural National Park","National","II","Not Applicable",2,0,589.499800382,616.875,604.795470365,"COL",NA
2625,"18744","REBIO Tinguá","Brasilien","Brazil","Lateinamerika","National Park",261.4,NA,NA,NA,"Wald",1,"Biological Reserve","National","Ia","Not Applicable",0,0,0,248.13,249.310537795,"BRA",NA
2626,"352062","PE Serra dos Martírios-Andorinhas","Brasilien","Brazil","Lateinamerika","PARQUE",248.97,NA,NA,NA,"Wald",1,"Park","National","II","Not Applicable",0,0,0,250.317,251.966115869,"BRA",NA
2627,"149","Macuira","Kolumbien","Colombia","Lateinamerika","National Park",250,NA,NA,NA,"Savanne",1,"Natural National Park","National","II","Not Applicable",0,0,0,250,241.959204513,"COL",NA
2628,"102254","San San Pond Sak","Panama","Panama","Lateinamerika","Humedal",310,NA,NA,"San Son Pond Sak","Küste",1,"Wetland of International Importance","National","IV","Not Applicable",0,1.36,1.4354415536,169.87,170.988910061,"PAN",NA
2629,"306787","Cuenca Hidrográfica del Río Necaxa ","Mexiko","Mexico","Lateinamerika","Área de Protección de Recursos Naturales",42.129,NA,NA,NA,"Wald",1,"Natural Resources Protection Area","National","VI","Not Applicable",0,0,0,421.29353,423.74232369,"MEX",NA
2630,"555600255","RESEX Marinha Mestre Lucindo","Brasilien","Brazil","Lateinamerika","RESEX",264.65,NA,NA,NA,"Wald",1,"Extractive Reserve","National","VI","Not Applicable",1,88.65,104.825308238,264.653,266.441402253,"BRA",NA
2631,"351802","RESEX Ipaú-Anilzinho","Brasilien","Brazil","Lateinamerika","National Park",558.16,NA,NA,NA,"Wald",1,"Extractive Reserve","National","VI","Not Applicable",0,0,0,558.342,562.086211109,"BRA",NA
2632,"3305","Mountain Pine Ridge","Belize","Belize","Lateinamerika","National Park",430,NA,NA,NA,"Küste",1,"Forest Reserve","National","VI","Not Applicable",0,0,0,430.818622018,435.164747039,"BLZ",NA
2633,"3306","Chiquibul Forest Reserve","Belize","Belize","Lateinamerika","National Park",598,NA,NA,NA,"Küste + EEZ",1,"Forest Reserve","National","VI","Not Applicable",0,0,0,598.16584744,601.848699102,"BLZ",NA
2634,"125","Ciénaga Grande de Santa Marta","Kolumbien","Colombia","Lateinamerika","Flora and Fauna Sanctuary",268.1,"Ciénaga Grande de Santa Marta",NA,"Ciénaga Grande de Santa Marta","Küste",1,"Fauna and Flora Sanctuary","National","Not Reported","Not Applicable",0,0,0.975828317208,268.1,271.882165201,"COL",NA
2635,"315070","Área de Uso Múltiple Río Sarstún","Guatemala","Guatemala","Lateinamerika","National Park",475.82,NA,NA,NA,"Küste",1,"Multiple Use Area","National","III","Not Applicable",0,0,0.0293048680001,325.809890898,325.809889814,"GTM",NA
2636,"99652","South Water Caye*","Belize","Belize","Lateinamerika","Marine Reserve",474.03,NA,"Belize Barrier Reef Reserve System",NA,"Küste",1,"Marine Reserve","National","IV","Not Applicable",2,477.019935,459.902815525,477.022795822,479.777202477,"BLZ",NA
2637,"33617","PE Serra dos Reis","Brasilien","Brazil","Lateinamerika","PARQUE",422.87,NA,NA,NA,"Wald",1,"Park","National","II","Not Applicable",0,0,0,364.388,366.622535738,"BRA",NA
2638,"555555692","Uramba Bahia Malaga","Kolumbien","Colombia","Lateinamerika","National Park",470.94,NA,NA,NA,"Küste",1,"Natural National Park","National","II","Not Applicable",2,0,455.301747723,470.94,474.053086144,"COL",NA
2639,"31758","Serra da Tabatinga","Brasilien","Brazil","Lateinamerika","Protected Area",351.85,NA,NA,NA,"Savanne",1,"Environmental Protection Area","National","V","Not Applicable",0,0,0,417.793,420.429172993,"BRA",NA
2640,"303549","Utria","Kolumbien","Colombia","Lateinamerika","National Park",543,NA,NA,NA,"Küste",1,"Natural National Park","National","II","Not Applicable",1,0,142.101288841,543,647.419346758,"COL",NA
2641,"198","Kaiateur","Guyana","Guyana","Lateinamerika","National Park",626.8,NA,NA,NA,"Wald",1,"Managed Resource Use Area","National","VI","Not Applicable",0,0,0,610.91336262,612.875194,"GUY",NA
2642,"352152","PE do Guariba","Brasilien","Brazil","Lateinamerika","PARQUE",722.96,NA,NA,NA,"Wald",1,"Park","National","II","Not Applicable",0,0,0,711.003999999,715.578301542,"BRA",NA
2643,"145","Pisba","Kolumbien","Colombia","Lateinamerika","National Park",450,NA,NA,NA,"Hochgebirge",1,"Natural National Park","National","II","Not Applicable",0,0,0,450,357.418745548,"COL",NA
2644,"555624849","ESEC de Guaraqueçaba","Brasilien","Brazil","Lateinamerika","National Park",44.76,NA,"Atlantic Forest South-East Reserves",NA,"Wald",1,"Ramsar Site, Wetland of International Importance","International","Ib","(i)(ii)(iii)(iv)(viii)",1,0,8.06390525191,43.07,43.8879023619,"BRA",NA
2645,"146","Munchique","Kolumbien","Colombia","Lateinamerika","National Park",440,NA,NA,NA,"Wald",1,"Natural National Park","National","II","Not Applicable",0,0,0,440,472.815578285,"COL",NA
2646,"19274","Parque Nacional do Superagüi","Brasilien","Brazil","Lateinamerika","National Park",340,NA,"Atlantic Forest South-East Reserves",NA,"Wald",1,"Park","National","II","Not Applicable",0,5.43,17.6431006888,338.605,340.050746745,"BRA",NA
2647,"351782","RESEX Mãe Grande de Curuçá","Brasilien","Brazil","Lateinamerika","RESEX",366.78,NA,NA,NA,"Wald",1,"Extractive Reserve","National","VI","Not Applicable",1,141.6,161.804599903,368.281,370.765206041,"BRA",NA
2648,"555576184","PE Lagamar-Canaéia","Brasilien","Brazil","Lateinamerika","National Park",407.58,NA,NA,NA,"Wald",1,"Park","National","II","Not Applicable",0,0,0.428488126853,407.061,408.819863151,"BRA",NA
2649,"33608","EE de Samuel","Brasilien","Brazil","Lateinamerika","PARQUE",710.61,NA,NA,NA,"Wald",1,"Ecological Station","National","Ia","Not Applicable",0,0,0,689.923999999,694.350739725,"BRA",NA
2650,"351801","RDS Itatupã-Baquiá","Brasilien","Brazil","Lateinamerika","National Park",647.35,NA,NA,NA,"Wald",1,"Sustainable Development Reserve","National","VI","Not Applicable",0,0,7.57028625784,644.412,648.755235033,"BRA",NA
2651,"29809","Gulf of Montijo Wetlands","Panama","Panama","Lateinamerika","Wetland",807,NA,NA,NA,"Küste + EEZ",1,"Ramsar Site, Wetland of International Importance","International","Not Reported","(ii)(iv)(v)",1,0,331.392511208,807.65,609.913011449,"PAN",NA
2652,"351781","RESEX Maracanã","Brasilien","Brazil","Lateinamerika","National Park",300.19,NA,NA,NA,"Wald",1,"Extractive Reserve","National","VI","Not Applicable",1,118.94,119.774915287,301.794,303.829282419,"BRA",NA
2653,"107569","Cañón del Usumacinta","Mexiko","Mexico","Lateinamerika","Área de Protección de Flora y Fauna",46.128,NA,NA,NA,"Wald",1,"Flora and Fauna Protection Area","National","VI","Not Applicable",0,0,0,461.28494,458.799643889,"MEX",NA
2654,"352146","PE do Rio Negro Setor Sul","Brasilien","Brazil","Lateinamerika","RESEX",866.01,NA,NA,NA,"Wald",1,"Park","National","II","Not Applicable",0,0,0,779.506,784.738849391,"BRA",NA
2655,"555626131","Bahía de Tela","Honduras","Honduras","Lateinamerika","National Park",862.6,NA,NA,NA,"Meer",1,"Wildlife Refuge","National","Not Reported","Not Applicable",2,0,866.905042871,862.590485464,868.214520531,"HND",NA
2656,"351805","RESEX Arioca-Pruanã","Brasilien","Brazil","Lateinamerika","National Park",834.45,NA,NA,NA,"Wald",1,"Extractive Reserve","National","VI","Not Applicable",0,0,0,838.173999999,843.812230977,"BRA",NA
2657,"142","Los Katio","Kolumbien","Colombia","Lateinamerika","National Park",720,NA,NA,NA,"Küste",1,"Natural National Park","National","II","Not Applicable",0,0,0,720,784.740173934,"COL",NA
2658,"555636002","Gulf of Tribuga","Kolumbien","Colombia","Lateinamerika","Marine PA ",601,NA,NA,NA,"Küste + EEZ",1,"Integrated Management Regional District","National","Not Reported","Not Applicable",1,0,535.776233362,601.386015625,605.69337201,"COL",NA
2659,"115772","EE do Rio Ronuro","Brasilien","Brazil","Lateinamerika","PARQUE",1020,NA,NA,NA,"Wald",1,"Ecological Station","National","Ia","Not Applicable",0,0,0,1026.68,1032.91491691,"BRA",NA
2660,"36053","Río Kruta","Honduras","Honduras","Lateinamerika","N.N.",1115.07,NA,NA,NA,"Küste",1,"National Park","National","II","Not Applicable",0,0,1.98674561192,600.93152967,602.684219059,"HND",NA
2661,"167","Tortuguero","Costa Rica","Costa Rica","Lateinamerika","Parque Nacional",723.59,NA,NA,"Tortuguero","Meer",1,"National Park","National","II","Not Applicable",1,264.5584,505.827420537,264.5584,772.291020884,"CRI",NA
2662,"108073","Sistema Arrecifal Lobos Tuxpan","Mexiko","Mexico","Lateinamerika","Área de Protección de Flora y Fauna",30.571,NA,NA,NA,"Küste",1,"Flora and Fauna Protection Area","National","VI","Not Applicable",2,305.7115,306.875837272,305.7115,307.202371764,"MEX",NA
2663,"150","Isla de Salamanca","Kolumbien","Colombia","Lateinamerika","Vía Parque",562,"Ciénaga Grande de Santa Marta",NA,"Ciénaga Grande de Santa Marta","Küste",1,"Park Way","National","III","Not Applicable",1,0,249.714440071,562,569.433433608,"COL",NA
2664,"33712","EE do Rio Roosevelt","Brasilien","Brazil","Lateinamerika","REBIO",969.25,NA,NA,NA,"Wald",1,"Ecological Station","National","Ia","Not Applicable",0,0,0,979.663,985.856896915,"BRA",NA
2665,"140","Sanquianga","Kolumbien","Colombia","Lateinamerika","National Park",800,NA,NA,NA,"Wald",1,"Natural National Park","National","II","Not Applicable",1,0,197.467993088,800,870.967784616,"COL",NA
2666,"16105","APA Petrópolis","Brasilien","Brazil","Lateinamerika","National Park",596.18,NA,NA,NA,"Wald",1,"Environmental Protection Area","National","V","Not Applicable",0,0,0,682.236,685.492449416,"BRA",NA
2667,"2219","EE de Maracá-Jipioca","Brasilien","Brazil","Lateinamerika","National Park",720,NA,NA,NA,"Wald",1,"Ecological Station","National","Ia","Not Applicable",0,21.27,5.12856601911,587.561,591.515307821,"BRA",NA
2668,"555636640","RDS Puranga Conquista","Brasilien","Brazil","Lateinamerika","PARQUE",769.36,NA,NA,NA,"Wald",1,"Sustainable Development Reserve","National","VI","Not Applicable",0,0,0,860.283,866.056764302,"BRA",NA
2669,"147","Los Nevados","Kolumbien","Colombia","Lateinamerika","National Park",380,NA,NA,NA,"Hochgebirge",1,"Natural National Park","National","II","Not Applicable",0,0,0,380,617.963727102,"COL",NA
2670,"41010","Cayos Cochinos","Honduras","Honduras","Lateinamerika","National Park",1220,NA,NA,NA,"Meer",1,"Natural Marine Monument","National","III","Not Applicable",2,1220.87549965,1215.53247104,1220.87549965,1228.74218327,"HND",NA
2671,"351997","PE Cristalino I ","Brasilien","Brazil","Lateinamerika","ESEC",579,NA,NA,NA,"Wald",1,"Park","National","II","Not Applicable",0,0,0,590.198,593.846560615,"BRA",NA
2672,"18810","Pico Bonito","Honduras","Honduras","Lateinamerika","National Park",1070.9,NA,NA,NA,"Wald",1,"National Park","National","II","Not Applicable",0,0,0,1064.77818406,1071.77139881,"HND",NA
2673,"81058","Juréia-Itatins","Brasilien","Brazil","Lateinamerika","National Park",844.25,NA,NA,NA,"Küste",1,"Ecological Station","National","Ia","Not Applicable",0,0.13,0.894001970347,843.791,847.530832687,"BRA",NA
2674,"2222","EE Rio Acre","Brasilien","Brazil","Lateinamerika","National Park",775,NA,NA,NA,"Wald",1,"Ecological Station","National","Ia","Not Applicable",0,0,0,793.947,798.912511988,"BRA",NA
2675,"352027","PE do Xingu","Brasilien","Brazil","Lateinamerika","PARQUE",950.25,NA,NA,NA,"Wald",1,"Park","National","II","Not Applicable",0,0,0,953.298,959.351616606,"BRA",NA
2677,"12493","Barra del Colordo","Costa Rica","Costa Rica","Lateinamerika","Refugio Nacional de Vida Silvestre",811.77,NA,NA,NA,"Küste",1,"National Wildlife Refuge","National","IV","Not Applicable",0,811.3934,9.05221581046,811.3934,816.631824507,"CRI",NA
2678,"33609","EE Serra dos Três Irmãos","Brasilien","Brazil","Lateinamerika","ESEC",874.12,NA,NA,NA,"Wald",1,"Ecological Station","National","Ia","Not Applicable",0,0,0,889.591,895.298066225,"BRA",NA
2679,"352121","APA da Bacia do Rio Macacu","Brasilien","Brazil","Lateinamerika","National Park",195,NA,NA,NA,"Wald",1,"Environmental Protection Area","National","V","Not Applicable",0,0.97,0.0846915360975,194.991,195.920400154,"BRA",NA
2680,"144","Tamá","Kolumbien","Colombia","Lateinamerika","National Park",480,NA,NA,NA,"Hochgebirge",1,"Natural National Park","National","II","Not Applicable",0,0,0,480,513.186586678,"COL",NA
2681,"33714","RESEX Rio Preto Jacundá","Brasilien","Brazil","Lateinamerika","RDS",953,NA,NA,NA,"Wald",1,"Extractive Reserve","National","VI","Not Applicable",0,0,0,1013.52,1020.01838364,"BRA",NA
2682,"555576164","Ilha Comprida","Brasilien","Brazil","Lateinamerika","National Park",175.72,NA,"Atlantic Forest South-East Reserves",NA,"Küste",1,"Environmental Protection Area","National","V","Not Applicable",0,0.47,4.25189546316,189.076,189.900374092,"BRA",NA
2683,"352151","RESEX do Guariba","Brasilien","Brazil","Lateinamerika","RDS",1504.65,NA,NA,NA,"Wald",1,"Extractive Reserve","National","VI","Not Applicable",0,0,0,1480.86,1490.33639636,"BRA",NA
2684,"103168","Yum Balam","Mexiko","Mexico","Lateinamerika","National Park",1540.52,NA,NA,"Área de Protección de Flora y Fauna Yum Balam","Küste",1,"Flora and Fauna Protection Area","National","VI","Not Applicable",1,1017.44632,940.046066029,1540.5225,1549.39562231,"MEX",NA
2685,"352013","PE do Cantão","Brasilien","Brazil","Lateinamerika","PARQUE",900.18,NA,NA,NA,"Wald",1,"Park","National","II","Not Applicable",0,0,0,1004.12,1010.51158033,"BRA",NA
2686,"351749","RESEX Barreiro das Antas","Brasilien","Brazil","Lateinamerika","National Park",1072.34,NA,NA,NA,"Wald",1,"Extractive Reserve","National","VI","Not Applicable",0,0,0,1061.11,1067.67505461,"BRA",NA
2687,"352154","RDS Bararati","Brasilien","Brazil","Lateinamerika","RDS",1136.06,NA,NA,NA,"Wald",1,"Sustainable Development Reserve","National","VI","Not Applicable",0,0,0,1108.13,1115.31686236,"BRA",NA
2688,"6074","RB do Tapirapé","Brasilien","Brazil","Lateinamerika","National Park",1030,NA,NA,NA,"Wald",1,"Biological Reserve","National","Ia","Not Applicable",0,0,0,992.717,999.284956601,"BRA",NA
2689,"351747","RESEX do Rio Cautário","Brasilien","Brazil","Lateinamerika","National Park",738.18,NA,NA,NA,"Wald",1,"Extractive Reserve","National","VI","Not Applicable",0,0,0,751.258999999,755.886472357,"BRA",NA
2690,"2234","Los Corales del Rosario y San Bernardo","Kolumbien","Colombia","Lateinamerika","National Park",1200,NA,NA,NA,"Küste",1,"Natural National Park","National","II","Not Applicable",2,0,1222.00397529,0,1241.78520266,"COL",NA
2691,"352197","PE Igarapés do Juruena","Brasilien","Brazil","Lateinamerika","PARQUE",2278.17,NA,NA,NA,"Wald",1,"Park","National","II","Not Applicable",0,0,0,2237.58,2251.94189963,"BRA",NA
2692,"352149","PE do Rio Negro Setor Norte","Brasilien","Brazil","Lateinamerika","PARQUE",1460.28,NA,NA,NA,"Wald",1,"Park","National","II","Not Applicable",0,0,0,1481.16,1491.12162783,"BRA",NA
2693,"2218","EE de Maracá","Brasilien","Brazil","Lateinamerika","National Park",1013.12,NA,NA,NA,"Wald",1,"Ecological Station","National","Ia","Not Applicable",0,0,0,1035.36,1042.29471504,"BRA",NA
2694,"141","Purace","Kolumbien","Colombia","Lateinamerika","National Park",830,NA,NA,NA,"Wald",1,"Natural National Park","National","II","Not Applicable",0,0,0,830,905.291751987,"COL",NA
2695,"12564","Punta Manabique","Guatemala","Guatemala","Lateinamerika","National Park",1518.78,NA,NA,"Punta de Manabique","Küste",1,"Wildlife Refuge","National","III","Not Applicable",1,294.76,1015.73398327,1527.97454488,1527.97454488,"GTM",NA
2696,"19993","Catatumbo-Bari","Kolumbien","Colombia","Lateinamerika","National Park",1581.25,NA,NA,NA,"Wald",1,"Natural National Park","National","II","Not Applicable",0,0,0,1581.25,1619.70905178,"COL",NA
2697,"555576206","RDS do Rio Negro","Brasilien","Brazil","Lateinamerika","RDS",1029.79,"Amazônia Central",NA,NA,"Wald",1,"Sustainable Development Reserve","National","VI","Not Applicable",0,0,0,1029.78,1036.68204362,"BRA",NA
2698,"351834","RESEX Arapixi","Brasilien","Brazil","Lateinamerika","National Park",1336.37,NA,NA,NA,"Wald",1,"Extractive Reserve","National","VI","Not Applicable",0,0,0,1337.03,1345.60573629,"BRA",NA
2699,"20224","Rio Bravo PR","Belize","Belize","Lateinamerika","Private Reserve",104.9,NA,NA,NA,"Wald",1,"Private Reserve","National","IV","Not Applicable",0,0,0,1048.9694652,1053.4561619,"BLZ",NA
2700,"351800","RESEX Mapuá","Brasilien","Brazil","Lateinamerika","National Park",944.64,NA,NA,NA,"Wald",1,"Extractive Reserve","National","VI","Not Applicable",0,0,11.0595818095,937.588,943.92426726,"BRA",NA
2701,"301909","Corozal Bay*","Belize","Belize","Lateinamerika","Wildlife Sanctuary",730.49,NA,NA,NA,"Küste",1,"Wildlife Sanctuary","National","IV","Not Applicable",2,730.486487,716.918005798,730.45758381,739.903573491,"BLZ",NA
2702,"478426","RESEX Renascer","Brasilien","Brazil","Lateinamerika","RESEX",2117.41,NA,NA,NA,"Wald",1,"Extractive Reserve","National","VI","Not Applicable",0,0,0,2096.57,2110.666866,"BRA",NA
2703,"555599933","APA Ambiental Estadual de Guaratuba","Brasilien","Brazil","Lateinamerika","National Park",1995.87,NA,NA,NA,"Wald",1,"Environmental Protection Area","National","V","Not Applicable",0,1.58,9.51828120807,1993.68,2002.03656587,"BRA",NA
2704,"20230","Chiquibul National Park","Belize","Belize","Lateinamerika","National Park",1068,NA,NA,NA,"Küste + EEZ",1,"National Park","National","II","Not Applicable",0,0,0,1157.14598417,1073.32322019,"BLZ",NA
2705,"138","Los Farallones de Cali","Kolumbien","Colombia","Lateinamerika","National Park",1500,NA,NA,NA,"Wald",1,"Natural National Park","National","II","Not Applicable",0,0,0,1500,1977.41188451,"COL",NA
2706,"136","Nevado del Huila","Kolumbien","Colombia","Lateinamerika","National Park",1580,NA,NA,NA,"Wald",1,"Natural National Park","National","II","Not Applicable",0,0,0,1580,1648.7305144,"COL",NA
2707,"30614","Montanas Mayas Chiquibul","Guatemala","Guatemala","Lateinamerika","National Park",1236,NA,NA,NA,"Wald",1,"Biosphere Reserve","National","VI","Not Applicable",0,0,0,1444.35061122,1444.350612,"GTM",NA
2708,"30625","Laguna de Caratasca","Honduras","Honduras","Lateinamerika","N.N.",1337.49,NA,NA,NA,"Küste",1,"Biological Reserve","National","Not Reported","Not Applicable",1,0,173.420140083,1334.666087,1340.31185861,"HND",NA
2709,"555624843","PN do Viruá","Brasilien","Brazil","Lateinamerika","National Park",2270.11,NA,NA,NA,"Wald",1,"Ramsar Site, Wetland of International Importance","International","II","(i)(ii)(iii)(vii)(viii)",0,0,0,2164.27,2164.12784424,"BRA",NA
2710,"351772","RESEX do Baixo Juruá","Brasilien","Brazil","Lateinamerika","National Park",1879.82,NA,NA,NA,"Wald",1,"Extractive Reserve","National","VI","Not Applicable",0,0,0,1780.39,1792.30185965,"BRA",NA
2711,"903013","Los Tuxtlas","Mexiko","Mexico","Lateinamerika","Reserva de la Biosfera",155.122,NA,NA,NA,"Wald",1,"UNESCO-MAB Biosphere Reserve","International","Not Applicable","Not Applicable",0,0,0,1551.22469,1557.27642855,"MEX",NA
2712,"351759","RESEX do Alto Tarauacá","Brasilien","Brazil","Lateinamerika","National Park",1512,NA,NA,NA,"Wald",1,"Extractive Reserve","National","VI","Not Applicable",0,0,0,1541.33,1551.21901447,"BRA",NA
2713,"351778","RESEX de Cururupu","Brasilien","Brazil","Lateinamerika","National Park",1850.47,NA,NA,NA,"Wald",1,"Extractive Reserve","National","VI","Not Applicable",1,1039.61,1025.69391218,1851.92,1864.37047423,"BRA",NA
2714,"555576283","RESEX Canutama","Brasilien","Brazil","Lateinamerika","RESEX",1979.87,NA,NA,NA,"Wald",1,"Extractive Reserve","National","VI","Not Applicable",0,0,0,1979.49,1992.40980527,"BRA",NA
2715,"101431","Maderas del Carmen","Mexiko","Mexico","Lateinamerika","Área de Protección de Flora y Fauna",208.381,NA,NA,NA,"Wald",1,"Flora and Fauna Protection Area","National","VI","Not Applicable",0,0,0,2083.8115,2082.32461423,"MEX",NA
2716,"7906","APA de Guaraqueçaba","Brasilien","Brazil","Lateinamerika","National Park",2824.44,NA,NA,NA,"Küste",1,"Environmental Protection Area","National","V","Not Applicable",1,6.46,374.341025974,2824.41,2836.51870006,"BRA",NA
2717,"67744","Sierra de las Minas","Guatemala","Guatemala","Lateinamerika","Reserva de Biósfera ",2396.91,"Sierra de las Minas",NA,NA,"Wald",1,"UNESCO-MAB Biosphere Reserve","International","Not Applicable","Not Applicable",0,0,0,2210.51292287,2210.51292287,"GTM",NA
2718,"19995","Tinigua","Kolumbien","Colombia","Lateinamerika","National Park",2018.75,NA,NA,NA,"Wald",1,"Natural National Park","National","II","Not Applicable",0,0,0,2018.75,2158.00840157,"COL",NA
2719,"81060","Abrolhos","Brasilien","Brazil","Lateinamerika","National Park",913,"Mata Atlântica",NA,"Abrolhos Marine National Park","Küste",1,"Park","National","II","Not Applicable",2,879.54,883.069018019,879.536,883.851220514,"BRA",NA
2720,"342347","Área de Protección de flora y fauna Bala'an K'áax","Mexiko","Mexico","Lateinamerika","National Park",1284,NA,NA,"Área de Protección de flora y fauna Bala'an K'áax","Wald",1,"Flora and Fauna Protection Area","National","VI","Not Applicable",0,0,0,1283.90155,1289.8637408,"MEX",NA
2721,"351831","RESEX Terra Grande Pracuúba","Brasilien","Brazil","Lateinamerika","National Park",1946.95,NA,NA,NA,"Wald",1,"Extractive Reserve","National","VI","Not Applicable",0,0,0,1948.57,1961.7222571,"BRA",NA
2722,"31777","RESEX do Rio Ouro Preto","Brasilien","Brazil","Lateinamerika","National Park",2045.83,NA,NA,NA,"Wald",1,"Extractive Reserve","National","VI","Not Applicable",0,0,0,2046.32,2059.16240054,"BRA",NA
2723,"137","Sumapaz","Kolumbien","Colombia","Lateinamerika","National Park",1540,NA,NA,NA,"Wald",1,"Natural National Park","National","II","Not Applicable",0,0,0,1540,2232.28435029,"COL",NA
2724,"134","Cordillera de los Picachos","Kolumbien","Colombia","Lateinamerika","National Park",4447.4,NA,NA,NA,"Wald",1,"Natural National Park","National","II","Not Applicable",0,0,0,4447.4,2898.42674465,"COL",NA
2725,"33612","PE Guajara-Mirim","Brasilien","Brazil","Lateinamerika","PARQUE",2165.68,NA,NA,NA,"Wald",1,"Park","National","II","Not Applicable",0,0,0,2050.49,2063.38450957,"BRA",NA
2726,"555576482","RDS Matupiri","Brasilien","Brazil","Lateinamerika","National Park",1790.83,NA,NA,NA,"Wald",1,"Sustainable Development Reserve","National","VI","Not Applicable",0,0,0,1770.09,1781.8282189,"BRA",NA
2727,"351773","RESEX do Rio Jutai","Brasilien","Brazil","Lateinamerika","National Park",2755.33,NA,NA,NA,"Wald",1,"Extractive Reserve","National","VI","Not Applicable",0,0,0,2755.13,2773.55252263,"BRA",NA
2728,"351777","RESEX Auati-Paraná","Brasilien","Brazil","Lateinamerika","National Park",1469.51,NA,NA,NA,"Wald",1,"Extractive Reserve","National","VI","Not Applicable",0,0,0,1469.49,1479.21238709,"BRA",NA
2729,"351795","RB da Nascentes da Serra do Cachimbo","Brasilien","Brazil","Lateinamerika","National Park",3424.78,NA,NA,NA,"Wald",1,"Biological Reserve","National","Ia","Not Applicable",0,0,0,3421.96,3443.92389453,"BRA",NA
2730,"903016","Pantanos de Centla","Mexiko","Mexico","Lateinamerika","Reserva de la Biosfera",302.707,NA,NA,NA,"Wald",1,"UNESCO-MAB Biosphere Reserve","International","Not Applicable","Not Applicable",0,0,0,3027.06625,3045.72061058,"MEX",NA
2731,"42","RB do Lago Piratuba","Brasilien","Brazil","Lateinamerika","National Park",3570,NA,NA,NA,"Wald",1,"Biological Reserve","National","Ia","Not Applicable",0,8.75,13.6659956305,3924.68,3951.01001832,"BRA",NA
2732,"10845","EE de Jutaí-Solimões","Brasilien","Brazil","Lateinamerika","National Park",2842.85,NA,NA,NA,"Wald",1,"Ecological Station","National","Ia","Not Applicable",0,0,0,2895.14,2914.53869221,"BRA",NA
2733,"30628","Indio Maíz","Nicaragua","Nicaragua","Lateinamerika","Reserva Biológica",2639.8,"Indio Maíz",NA,NA,"Wald",1,"Biological Reserve","National","Not Reported","Not Applicable",0,0,1.42612029158,2639.8,3170.36690301,"NIC",NA
2734,"115769","PE Serra de Ricardo Franco","Brasilien","Brazil","Lateinamerika","ESEC",1586.21,NA,NA,NA,"Wald",1,"Park","National","II","Not Applicable",0,0,0,1578.34,1587.65794039,"BRA",NA
2735,"352135","RESEX do Catuá Ipixuna","Brasilien","Brazil","Lateinamerika","RESEX",2174.86,NA,NA,NA,"Wald",1,"Extractive Reserve","National","VI","Not Applicable",0,0,0,2123.23,2137.41922195,"BRA",NA
2736,"351713","RESEX Riozinho da Liberdade","Brasilien","Brazil","Lateinamerika","National Park",3256.03,NA,NA,NA,"Wald",1,"Extractive Reserve","National","VI","Not Applicable",0,0,0,3249.01,3270.00987039,"BRA",NA
2737,"351748","PN Serra da Cutia","Brasilien","Brazil","Lateinamerika","National Park",2836.11,NA,NA,NA,"Wald",1,"Park","National","II","Not Applicable",0,0,0,2834.99,2852.57261422,"BRA",NA
2738,"10795","RB do Gurupi","Brasilien","Brazil","Lateinamerika","National Park",3416.5,NA,NA,NA,"Wald",1,"Biological Reserve","National","Ia","Not Applicable",0,0,0,2711.81,2730.09938206,"BRA",NA
2739,"44","RB do Jaru","Brasilien","Brazil","Lateinamerika","National Park",3281.5,NA,NA,NA,"Wald",1,"Biological Reserve","National","Ia","Not Applicable",0,0,0,3468.6,3490.61914055,"BRA",NA
2740,"2553","Amistad","Costa Rica","Costa Rica","Lateinamerika","Parque Internacional",1905.13,NA,NA,NA,"Wald",1,"National Park","National","II","Not Applicable",0,0,0,1982.9311,1995.58963859,"CRI",NA
2741,"351767","RESEX do Lago Capanã Grande","Brasilien","Brazil","Lateinamerika","National Park",3041.46,NA,NA,NA,"Wald",1,"Extractive Reserve","National","VI","Not Applicable",0,0,0,3043.09,3063.16853296,"BRA",NA
2742,"352158","RDS Aripuanã","Brasilien","Brazil","Lateinamerika","RESEX",2242.91,NA,NA,NA,"Wald",1,"Sustainable Development Reserve","National","VI","Not Applicable",0,0,0,2180.96,2195.02450263,"BRA",NA
2743,"351769","RESEX do Medio Juruá","Brasilien","Brazil","Lateinamerika","National Park",2869.33,NA,NA,NA,"Wald",1,"Extractive Reserve","National","VI","Not Applicable",0,0,0,2869.55,2888.57844613,"BRA",NA
2744,"133","Cocuy","Kolumbien","Colombia","Lateinamerika","National Park",3060,NA,NA,NA,"Hochgebirge",1,"Natural National Park","National","II","Not Applicable",0,0,0,3060,3082.2744918,"COL",NA
2745,"10826","EE Niquiá","Brasilien","Brazil","Lateinamerika","National Park",2866,NA,NA,NA,"Wald",1,"Ecological Station","National","Ia","Not Applicable",0,0,0,3064.01,3084.5955342,"BRA",NA
2746,"101457","Cañón de Santa Elena","Mexiko","Mexico","Lateinamerika","Área de Protección de Flora y Fauna",277.21,NA,NA,NA,"Wald",1,"Flora and Fauna Protection Area","National","VI","Not Applicable",0,0,0,2772.09721,2786.60879014,"MEX",NA
2747,"478422","RESEX do Rio Xingu","Brasilien","Brazil","Lateinamerika","National Park",3038.41,NA,NA,NA,"Wald",1,"Extractive Reserve","National","VI","Not Applicable",0,0,0,3030.02,3049.94529759,"BRA",NA
2748,"351712","PN da Serra do Pardo","Brasilien","Brazil","Lateinamerika","National Park",4453.92,NA,NA,NA,"Wald",1,"Park","National","II","Not Applicable",0,0,0,4453.95,4483.38326817,"BRA",NA
2749,"132","Sierra Nevada de Santa Marta","Kolumbien","Colombia","Lateinamerika","National Park",3830,"Sierra Nevada de Santa Marta",NA,NA,"Hochgebirge",1,"Natural National Park","National","II","Not Applicable",0,0,0.00902393674484,3830,4039.59248859,"COL",NA
2750,"900668","Sierra Gorda","Mexiko","Mexico","Lateinamerika","Reserva de la Biosfera",383.567,NA,NA,NA,"Wald",1,"UNESCO-MAB Biosphere Reserve","International","Not Applicable","Not Applicable",0,0,0,3835.674487,3859.66023122,"MEX",NA
2751,"43","RB do Rio Trombetas","Brasilien","Brazil","Lateinamerika","National Park",3850,NA,NA,NA,"Wald",1,"Biological Reserve","National","Ia","Not Applicable",0,0,0,4077.55,4105.06368102,"BRA",NA
2752,"4891","EE do Jari","Brasilien","Brazil","Lateinamerika","National Park",2271.26,NA,NA,NA,"Wald",1,"Ecological Station","National","Ia","Not Applicable",0,0,0,2311.09,2326.69868204,"BRA",NA
2753,"107806","Ocampo","Mexiko","Mexico","Lateinamerika","Área de Protección de Flora y Fauna",344.238,NA,NA,NA,"Wald",1,"Flora and Fauna Protection Area","National","VI","Not Applicable",0,0,0,3442.38233,3454.09597878,"MEX",NA
2754,"31776","RESEX do Rio Cajari","Brasilien","Brazil","Lateinamerika","National Park",5017.71,NA,NA,NA,"Wald",1,"Extractive Reserve","National","VI","Not Applicable",0,0,59.0720053532,5323.97,5359.7909366,"BRA",NA
2755,"555576433","PE do Matupiri","Brasilien","Brazil","Lateinamerika","PARQUE",5137.47,NA,NA,NA,"Wald",1,"Park","National","II","Not Applicable",0,0,0,5096.01,5129.8222169,"BRA",NA
2756,"33613","PE de Corumbiara","Brasilien","Brazil","Lateinamerika","ESEC",3840.55,NA,NA,NA,"Wald",1,"Park","National","II","Not Applicable",0,0,0,3802.42,3825.41059135,"BRA",NA
2757,"41049","Kanuku Mountains","Guyana","Guyana","Lateinamerika","National Park",6110,NA,NA,NA,"Savanne",1,"Managed Resource Use Area","National","VI","Not Applicable",0,0,0,6102.36558361,6126.017722,"GUY",NA
2758,"41057_A","Shell Beach","Guyana","Guyana","Lateinamerika","National Park",1203,NA,NA,NA,"Küste",1,"Managed Resource Use Area","National","VI","Not Applicable",0,0,0,1198.78154123,1203.043892,"GUY",NA
2759,"33716","RESEX do Rio Paccás Novos","Brasilien","Brazil","Lateinamerika","RESEX",3429.04,NA,NA,NA,"Wald",1,"Extractive Reserve","National","VI","Not Applicable",0,0,0,3462.45,3484.01646332,"BRA",NA
2760,"2215","PN de Anavilhanas","Brasilien","Brazil","Lateinamerika","National Park",3500.18,"Amazônia Central","Central Amazon Conservation Complex",NA,"Wald",1,"Park","National","II","Not Applicable",0,0,0,3502.36,3525.8824157,"BRA",NA
2761,"131","Paramillo","Kolumbien","Colombia","Lateinamerika","National Park",4600,NA,NA,NA,"Wald",1,"Natural National Park","National","II","Not Applicable",0,0,0,4600,5071.48154592,"COL",NA
2762,"352138","RDS Uacari","Brasilien","Brazil","Lateinamerika","RDS",6329.49,NA,NA,NA,"Wald",1,"Sustainable Development Reserve","National","VI","Not Applicable",0,0,0,6203.01,6243.99376656,"BRA",NA
2763,"478539","RDS do Juma","Brasilien","Brazil","Lateinamerika","RDS",5896.11,NA,NA,NA,"Wald",1,"Sustainable Development Reserve","National","VI","Not Applicable",0,0,0,5807.82,5846.11597596,"BRA",NA
2764,"198351","PN Serra da Mocidade","Brasilien","Brazil","Lateinamerika","National Park",3509.6,NA,NA,NA,"Wald",1,"Park","National","II","Not Applicable",0,0,0,3593.91,3617.68276996,"BRA",NA
2765,"18740","Tupiniquins","Brasilien","Brazil","Lateinamerika","National Park",17.28,NA,NA,NA,"Küste",1,"Ecological Station","National","Ia","Not Applicable",2,16.48,15.9754000223,17.277,17.3524917078,"BRA",NA
2766,"555576417","APA Marinha Litoral Centro","Brasilien","Brazil","Lateinamerika","National Park",38.23,NA,NA,NA,"Wald",1,"Environmental Protection Area","National","V","Not Applicable",2,4493.81,4529.41685065,4531.09,4552.58533811,"BRA",NA
2767,"351842","PE Chandless","Brasilien","Brazil","Lateinamerika","PARQUE",6953.03,NA,NA,NA,"Wald",1,"Park","National","II","Not Applicable",0,0,0,6932.01,6989.74237827,"BRA",NA
2768,"351785","RESEX Riozinho do Anfrísio","Brasilien","Brazil","Lateinamerika","National Park",7363.41,NA,NA,NA,"Wald",1,"Extractive Reserve","National","VI","Not Applicable",0,0,0,7370.22,7419.29997858,"BRA",NA
2769,"555576387","APA Marinha Litoral Sul","Brasilien","Brazil","Lateinamerika","National Park",3651.97,NA,NA,NA,"Wald",1,"Environmental Protection Area","National","V","Not Applicable",2,3657.36,3684.02203891,3683.84,3699.82378662,"BRA",NA
2770,"555576393","RDS Rio Madeira","Brasilien","Brazil","Lateinamerika","RESEX",2831.17,NA,NA,NA,"Wald",1,"Sustainable Development Reserve","National","VI","Not Applicable",0,0,0,2796.31,2814.84569574,"BRA",NA
2771,"555582979","Islas de la Bahía","Honduras","Honduras","Lateinamerika","National Park",6471.52,NA,NA,NA,"Meer",1,"Marine National Park","National","Not Reported","Not Applicable",2,6441.65865005,6305.36435597,6441.65865005,6481.56870871,"HND",NA
2772,"19484","Área de Proteção Ambiental Cananéia-Iguape-Peruíbe","Brasilien","Brazil","Lateinamerika","National Park",2023,NA,NA,NA,"Wald",1,"Environmental Protection Area","National","V","Not Applicable",0,2.85,121.176051858,2023.08,2031.97170041,"BRA",NA
2773,"555576236","RDS Igapó-Açu","Brasilien","Brazil","Lateinamerika","RESEX",3975.57,NA,NA,NA,"Wald",1,"Sustainable Development Reserve","National","VI","Not Applicable",0,0,0,3946.16,3972.37713616,"BRA",NA
2774,"41014","Río Plátano","Honduras","Honduras","Lateinamerika","National Park",8323.32,"Río Plátano","Río Plátano Biosphere Reserve",NA,"Wald",1,"National Park","National","II","Not Applicable",0,0,447.837214222,8323.30123034,8367.36468865,"HND",NA
2775,"57","PN do Cabo Orange","Brasilien","Brazil","Lateinamerika","National Park",6190,NA,NA,"Cabo Orange National Park","Wald",1,"Park","National","II","Not Applicable",1,2196.14,2270.56615516,6573.28,6616.79384746,"BRA",NA
2776,"351830","RESEX do Rio Iriri","Brasilien","Brazil","Lateinamerika","National Park",3989.38,NA,NA,NA,"Wald",1,"Extractive Reserve","National","VI","Not Applicable",0,0,0,3989.81,4016.42894928,"BRA",NA
2777,"351776","RESEX Tapajós-Arapiuns","Brasilien","Brazil","Lateinamerika","National Park",6476.11,NA,NA,NA,"Wald",1,"Extractive Reserve","National","VI","Not Applicable",0,0,0,6742.05,6785.87489171,"BRA",NA
2778,"351818","PN do Jamanxim","Brasilien","Brazil","Lateinamerika","National Park",8526.16,NA,NA,NA,"Wald",1,"Park","National","II","Not Applicable",0,0,0,8628.87,8686.0499082,"BRA",NA
2779,"101761","RDS do Rio Iratapuru","Brasilien","Brazil","Lateinamerika","RDS",8061.84,NA,NA,NA,"Wald",1,"Sustainable Development Reserve","National","VI","Not Applicable",0,0,0,8735.77,8794.92709127,"BRA",NA
2780,"478419","PN Nascentes do Lago Jari","Brasilien","Brazil","Lateinamerika","National Park",8121.41,NA,NA,NA,"Wald",1,"Park","National","II","Not Applicable",0,0,0,8127.42,8181.11699335,"BRA",NA
2781,"478421","RESEX Ituxi","Brasilien","Brazil","Lateinamerika","National Park",7769.4,NA,NA,NA,"Wald",1,"Extractive Reserve","National","VI","Not Applicable",0,0,0,7763.24,7813.32329938,"BRA",NA
2782,"351819","PN do Rio Novo","Brasilien","Brazil","Lateinamerika","National Park",5377.57,NA,NA,NA,"Wald",1,"Park","National","II","Not Applicable",0,0,0,5380.89,5415.79429602,"BRA",NA
2783,"352156","PE do Sucunduri","Brasilien","Brazil","Lateinamerika","PARQUE",8083.12,NA,NA,NA,"Wald",1,"Park","National","II","Not Applicable",0,0,0,7962.08,8012.67913679,"BRA",NA
2784,"130","Sierra de la Macarena","Kolumbien","Colombia","Lateinamerika","National Park",6300,NA,NA,NA,"Wald",1,"Natural National Park","National","II","Not Applicable",0,0,0,6300,6246.80318593,"COL",NA
2785,"30622","Cayos Miskitos","Honduras","Honduras","Lateinamerika","Reserva Biológica",13060.57,NA,NA,NA,"Meer",1,"Marine National Park","National","Not Reported","Not Applicable",2,9040.8595509,9037.2759276,9040.8595509,9048.70062663,"HND",NA
2786,"31752","RB do Uatumã","Brasilien","Brazil","Lateinamerika","National Park",9403.58,NA,NA,NA,"Wald",1,"Biological Reserve","National","Ia","Not Applicable",0,0,0,9385.91,9448.84378186,"BRA",NA
2787,"351786","RESEX Verde para Sempre","Brasilien","Brazil","Lateinamerika","National Park",12887.17,NA,NA,NA,"Wald",1,"Extractive Reserve","National","VI","Not Applicable",0,0,24.4315711106,12892.9,12979.6201965,"BRA",NA
2788,"31775","RESEX Chico Mendes","Brasilien","Brazil","Lateinamerika","National Park",9705.7,NA,NA,NA,"Wald",1,"Extractive Reserve","National","VI","Not Applicable",0,0,0,9314.59,9373.18500693,"BRA",NA
2789,"351758","Nascentes do Rio Parnaíba","Brasilien","Brazil","Lateinamerika","National Park",7243.24,NA,NA,NA,"Savanne",1,"Park","National","II","Not Applicable",0,0,0,7497.66,7545.21488155,"BRA",NA
2790,"351756","RESEX do Cazumbá-Iracema","Brasilien","Brazil","Lateinamerika","National Park",7507.95,NA,NA,NA,"Wald",1,"Extractive Reserve","National","VI","Not Applicable",0,0,0,7556.51,7591.84243947,"BRA",NA
2791,"478420","RESEX do Médio Purus","Brasilien","Brazil","Lateinamerika","National Park",6042.09,NA,NA,NA,"Wald",1,"Extractive Reserve","National","VI","Not Applicable",0,0,0,6042.26,6081.48395613,"BRA",NA
2792,"26621","Reserva de la Biósfera Maya","Guatemala","Guatemala","Lateinamerika","National Park",21602,"Reserva de la Biósfera Maya",NA,NA,"Wald",1,"UNESCO-MAB Biosphere Reserve","International","Not Applicable","Not Applicable",0,0,0,12786.8880783,12786.8880771,"GTM",NA
2793,"10830","EE Juami-Japurá","Brasilien","Brazil","Lateinamerika","National Park",5726.5,"Amazônia Central",NA,NA,"Wald",1,"Ecological Station","National","Ia","Not Applicable",0,0,0,8315.24,8371.20759821,"BRA",NA
2794,"352136","RDS Piagaçu-Purus","Brasilien","Brazil","Lateinamerika","RDS",10081.67,NA,NA,NA,"Wald",1,"Sustainable Development Reserve","National","VI","Not Applicable",0,0,0,8009.07,8061.98875015,"BRA",NA
2795,"351832","RESEX Rio Unini","Brasilien","Brazil","Lateinamerika","National Park",8333.52,NA,NA,NA,"Wald",1,"Extractive Reserve","National","VI","Not Applicable",0,0,0,8496.86,8554.05595518,"BRA",NA
2796,"19275","PN da Serra do Divisor","Brasilien","Brazil","Lateinamerika","National Park",8466.33,NA,NA,NA,"Wald",1,"Park","National","II","Not Applicable",0,0,0,8375.61,8429.90454737,"BRA",NA
2797,"351833","PN dos Campos Amazônicos","Brasilien","Brazil","Lateinamerika","National Park",9613.2,NA,NA,NA,"Wald",1,"Park","National","II","Not Applicable",0,0,0,9613.11,9675.17659532,"BRA",NA
2798,"352202","RB de Maicuru","Brasilien","Brazil","Lateinamerika","ESEC",11517.61,NA,NA,NA,"Wald",1,"Biological Reserve","National","Ia","Not Applicable",0,0,0,11731.5,11809.7282037,"BRA",NA
2799,"95320","Mamirauá","Brasilien","Brazil","Lateinamerika","National Park",11240,NA,"Central Amazon Conservation Complex","Mamirauá","Wald",1,"Ramsar Site, Wetland of International Importance","International","Not Reported","(i)(ii)(iii)(iv)(v)(vii)(viii)",0,0,0,11240,11551.4993572,"BRA",NA
2800,"352139","RDS do Cujubim","Brasilien","Brazil","Lateinamerika","RDS",24503.82,NA,NA,NA,"Wald",1,"Sustainable Development Reserve","National","VI","Not Applicable",0,0,0,24219.3,24379.487878,"BRA",NA
2801,"53","PN do Jaú","Brasilien","Brazil","Lateinamerika","National Park",22720,"Amazônia Central","Central Amazon Conservation Complex",NA,"Wald",1,"Park","National","II","Not Applicable",0,0,0,23673.4,23832.5187575,"BRA",NA
2802,"351839","PN do Juruena","Brasilien","Brazil","Lateinamerika","National Park",19570,NA,NA,NA,"Wald",1,"Park","National","II","Not Applicable",0,0,0,19565.9,19694.8376159,"BRA",NA
2803,"352134","RDS do Amanã","Brasilien","Brazil","Lateinamerika","RDS",23500,NA,NA,NA,"Wald",1,"Sustainable Development Reserve","National","VI","Not Applicable",0,0,0,23034.6,23189.4800385,"BRA",NA
2804,"351711","EE da Terra do Meio","Brasilien","Brazil","Lateinamerika","National Park",33731.11,NA,NA,NA,"Wald",1,"Ecological Station","National","Ia","Not Applicable",0,0,0,33731.4,33954.2410188,"BRA",NA
2805,"351784","PN Montanhas do Tumucumaque","Brasilien","Brazil","Lateinamerika","National Park",38670,NA,NA,NA,"Wald",1,"Park","National","II","Not Applicable",0,0,0,38651.5,38911.8259957,"BRA",NA
2806,"107620","Cuenca Alimentadora del Distrito Nacional de Riego ","Mexiko","Mexico","Lateinamerika","Área de Protección de Flora y Fauna",1519385,NA,NA,NA,"Wald",1,"Natural Resources Protection Area","National","VI","Not Applicable",0,0,0,23290.26757,23417.6541059,"MEX",NA
2807,"352198","EE Grão Pará","Brasilien","Brazil","Lateinamerika","PARQUE",42458.19,NA,NA,NA,"Wald",1,"Ecological Station","National","Ia","Not Applicable",0,0,0,42036.9,42321.2661099,"BRA",NA
2808,"55544090","Sistema de Islas, Islotes y Puntas Guaneras","Peru","Peru","Lateinamerika","National Park",141,NA,NA,NA,"Küste",1,"National Reserve","National","VI","Not Applicable",2,1408.3347,1379.00150371,1408.3347,1416.70448319,"PER",NA
